LEMUR-2-ALISIA          
1 62706U 25009DB  26165.20583814  .00007553  00000+0  56961-3 0  9997
2 62706  97.6966 247.3958 0001612 190.0884 170.0309 15.02733534 99713
LEMUR-2-ROUNDTRIPPER    
1 62711U 25009DG  26165.16595248  .00009213  00000+0  67514-3 0  9993
2 62711  97.7260 247.8490 0005018 140.0023 220.1573 15.03748203 77173
LEMUR-2-MYNAMEISJEFF    
1 62712U 25009DH  26165.16437664  .00008590  00000+0  62978-3 0  9997
2 62712  97.7307 248.2267 0003229 162.1666 197.9673 15.03757397 77179
LEMUR-2-LEIA-PHILIP     
1 63246U 25052AN  26165.19610472  .00001438  00000+0  12893-3 0  9996
2 63246  97.6846  57.1975 0002267 219.6618 140.4438 14.97313671 68221
LEMUR-2-LIA-MARTIN      
1 63248U 25052AQ  26165.20211465  .00004096  00000+0  35369-3 0  9995
2 63248  97.6913  57.6743 0002734 159.9813 200.1517 14.97785896 68233
LEMUR-2-DELOITTE-1      
1 63259U 25052BB  26165.17810285  .00004299  00000+0  37295-3 0  9993
2 63259  97.6925  57.9790 0003188 103.4149 256.7428 14.97581990 68241
LEMUR-2-EMERSONROSE     
1 63261U 25052BD  26165.15623803  .00003653  00000+0  30583-3 0  9998
2 63261  97.6898  58.5110 0001909  66.5746 293.5678 14.99061665 68281
LEMUR-2-MARACHE-FRAN    
1 63262U 25052BE  26165.20032905  .00005654  00000+0  45824-3 0  9999
2 63262  97.6955  58.8642 0005677  33.5149 326.6433 15.00076048 68311
LEMUR-2-THEFALCONER     
1 63264U 25052BG  26165.20405456  .00003025  00000+0  26534-3 0  9993
2 63264  97.6881  57.6289 0003049  42.5109 317.6348 14.97374487 68242
LEMUR-2-UNTITLED-SC     
1 63351U 25061A   26165.17962507  .00003879  00000+0  21997-3 0  9996
2 63351  97.5629 140.5632 0016885 276.1562  83.7745 15.13456630 67131
LEMUR-2-ESPERANZA       
1 63352U 25061B   26164.89250082  .00004387  00000+0  24771-3 0  9991
2 63352  97.5636 140.3708 0016566 276.5984  83.3362 15.13546416 67098
LEMUR-2-KREMPEL-BRO2    
1 63353U 25061C   26165.18479465  .00003972  00000+0  22184-3 0  9998
2 63353  97.5685 141.1907 0017398 267.0853  92.8388 15.13986609 67159
LEMUR-2-THERMORAPTOR    
1 63354U 25061D   26165.16701972  .00004174  00000+0  23242-3 0  9999
2 63354  97.5688 141.2481 0017157 266.0234  93.9036 15.14064295 67157
LEMUR-2-NEUROSPICY      
1 63355U 25061E   26164.87458841  .00004903  00000+0  27172-3 0  9997
2 63355  97.5616 140.5860 0015020 271.0399  88.9112 15.14177631 67111
LEMUR-2-TILLINFINITY    
1 63356U 25061F   26164.91112772  .00004049  00000+0  22129-3 0  9991
2 63356  97.5598 140.9106 0016228 257.7055 102.2360 15.14763081 67147
LEMUR-2-KREMPEL-BRO1    
1 63357U 25061G   26165.21451619  .00004664  00000+0  25565-3 0  9992
2 63357  97.5603 141.1291 0016951 257.9422 101.9910 15.14571258 67180
LEMUR-2-LANGER2SPACE    
1 63358U 25061H   26165.17434550  .00003959  00000+0  21961-3 0  9995
2 63358  97.5605 140.9043 0014844 268.0897  91.8634 15.14267873 67166
LEMUR-2-BALTO           
1 63395U 25052BH  26165.18498209  .00005960  00000+0  48296-3 0  9992
2 63395  97.6898  58.8291 0006884  65.6820 294.5121 15.00057471 68313
LEMUR-2-KRISH           
1 64561U 25135AK  26164.86422271  .00005802  00000+0  51988-3 0  9997
2 64561  97.7739 279.7631 0001672 103.9511 256.1896 14.96178347 53428
LEMUR-2-HUBBLE-4        
1 64565U 25135AP  26165.18785337  .00001549  00000+0  15369-3 0  9999
2 64565  97.7696 279.1303 0001125 327.9445  32.1706 14.93189305 53426
LEMUR-2-SEJONG-2        
1 64586U 25135BL  26165.22956674  .00003667  00000+0  32639-3 0  9993
2 64586  97.7689 280.2708 0004089 352.5073   7.6087 14.96677547 53507
LEMUR-2-HUBBLE-5        
1 64840U 25135BT  26165.21077602  .00001573  00000+0  15240-3 0  9993
2 64840  97.7715 279.7820 0005331   4.8092 355.3179 14.94128686 53460
LEMUR-2-KARENDARRELL    
1 64841U 25135BU  26165.04978422  .00008407  00000+0  67858-3 0  9990
2 64841  97.7677 281.2629 0009464 214.2952 145.7661 15.00071058 53540
LEMUR-2-LUCILLE-ROSE    
1 65403U 25135BV  26164.89019160  .00007354  00000+0  59346-3 0  9995
2 65403  97.7771 281.1193 0010907 295.7571  64.2526 15.00118871 48140
LEMUR-2-AFFIE-WAUWIE    
1 66295U 25248C   26165.17737353  .00015219  00000+0  57239-3 0  9991
2 66295  45.3886 131.2928 0007744  63.5131 296.6551 15.27058848 34134
LEMUR-2-DEANANDMAEVE    
1 66678U 25276N   26165.15418126  .00007378  00000+0  34847-3 0  9996
2 66678  97.4219 238.6797 0006007  24.7792 335.3731 15.19700477 29954
LEMUR-2-STAS-GORBUK     
1 66686U 25276W   26165.16798759  .00005753  00000+0  27525-3 0  9999
2 66686  97.4254 238.7486 0005392  25.4705 334.6795 15.19352528 29958
LEMUR-2-TEODOR          
1 66768U 25276DG  26165.15507771  .00006517  00000+0  29674-3 0  9997
2 66768  97.4157 238.9683 0002058 118.6510 241.4933 15.21021305 29988
LEMUR-2-LAILA           
1 66776U 25276DQ  26165.19521047  .00005627  00000+0  25503-3 0  9990
2 66776  97.4180 239.1268 0002057 140.2914 219.8473 15.21242619 29995
LEMUR-2-CELIJO-SB-PK    
1 66781U 25276DW  26165.16803233  .00007455  00000+0  60409-3 0  9998
2 66781  97.5271 236.0436 0008974 140.0697 220.1189 14.99948542 22170
