OBJECT_NAME,OBJECT_ID,EPOCH,MEAN_MOTION,ECCENTRICITY,INCLINATION,RA_OF_ASC_NODE,ARG_OF_PERICENTER,MEAN_ANOMALY,EPHEMERIS_TYPE,CLASSIFICATION_TYPE,NORAD_CAT_ID,ELEMENT_SET_NO,REV_AT_EPOCH,BSTAR,MEAN_MOTION_DOT,MEAN_MOTION_DDOT
LEMUR-2-ALISIA,2025-009DB,2026-06-14T04:56:24.415296,15.02733534,.0001612,97.6966,247.3958,190.0884,170.0309,0,U,62706,999,9971,.56961E-3,.7553E-4,0
LEMUR-2-ROUNDTRIPPER,2025-009DG,2026-06-14T03:58:58.294272,15.03748203,.0005018,97.7260,247.8490,140.0023,220.1573,0,U,62711,999,7717,.67514E-3,.9213E-4,0
LEMUR-2-MYNAMEISJEFF,2025-009DH,2026-06-14T03:56:42.141696,15.03757397,.0003229,97.7307,248.2267,162.1666,197.9673,0,U,62712,999,7717,.62978E-3,.859E-4,0
LEMUR-2-LEIA-PHILIP,2025-052AN,2026-06-14T04:42:23.447808,14.97313671,.0002267,97.6846,57.1975,219.6618,140.4438,0,U,63246,999,6822,.12893E-3,.1438E-4,0
LEMUR-2-LIA-MARTIN,2025-052AQ,2026-06-14T04:51:02.705760,14.97785896,.0002734,97.6913,57.6743,159.9813,200.1517,0,U,63248,999,6823,.35369E-3,.4096E-4,0
LEMUR-2-DELOITTE-1,2025-052BB,2026-06-14T04:16:28.086240,14.97581990,.0003188,97.6925,57.9790,103.4149,256.7428,0,U,63259,999,6824,.37295E-3,.4299E-4,0
LEMUR-2-EMERSONROSE,2025-052BD,2026-06-14T03:44:58.965792,14.99061665,.0001909,97.6898,58.5110,66.5746,293.5678,0,U,63261,999,6828,.30583E-3,.3653E-4,0
LEMUR-2-MARACHE-FRAN,2025-052BE,2026-06-14T04:48:28.429920,15.00076048,.0005677,97.6955,58.8642,33.5149,326.6433,0,U,63262,999,6831,.45824E-3,.5654E-4,0
LEMUR-2-THEFALCONER,2025-052BG,2026-06-14T04:53:50.313984,14.97374487,.0003049,97.6881,57.6289,42.5109,317.6348,0,U,63264,999,6824,.26534E-3,.3025E-4,0
LEMUR-2-UNTITLED-SC,2025-061A,2026-06-14T04:18:39.606048,15.13456630,.0016885,97.5629,140.5632,276.1562,83.7745,0,U,63351,999,6713,.21997E-3,.3879E-4,0
LEMUR-2-ESPERANZA,2025-061B,2026-06-13T21:25:12.070848,15.13546416,.0016566,97.5636,140.3708,276.5984,83.3362,0,U,63352,999,6709,.24771E-3,.4387E-4,0
LEMUR-2-KREMPEL-BRO2,2025-061C,2026-06-14T04:26:06.257760,15.13986609,.0017398,97.5685,141.1907,267.0853,92.8388,0,U,63353,999,6715,.22184E-3,.3972E-4,0
LEMUR-2-THERMORAPTOR,2025-061D,2026-06-14T04:00:30.503808,15.14064295,.0017157,97.5688,141.2481,266.0234,93.9036,0,U,63354,999,6715,.23242E-3,.4174E-4,0
LEMUR-2-NEUROSPICY,2025-061E,2026-06-13T20:59:24.438624,15.14177631,.00150203,97.5616,140.5860,271.0399,88.9112,0,U,63355,999,6711,.27171625E-3,.4903E-4,0
LEMUR-2-TILLINFINITY,2025-061F,2026-06-13T21:52:01.435008,15.14763081,.0016228,97.5598,140.9106,257.7055,102.2360,0,U,63356,999,6714,.22129E-3,.4049E-4,0
LEMUR-2-KREMPEL-BRO1,2025-061G,2026-06-14T05:08:54.198816,15.14571258,.0016951,97.5603,141.1291,257.9422,101.9910,0,U,63357,999,6718,.25565E-3,.4664E-4,0
LEMUR-2-LANGER2SPACE,2025-061H,2026-06-14T04:11:03.451200,15.14267873,.0014844,97.5605,140.9043,268.0897,91.8634,0,U,63358,999,6716,.21961E-3,.3959E-4,0
LEMUR-2-BALTO,2025-052BH,2026-06-14T04:26:22.452576,15.00057471,.0006884,97.6898,58.8291,65.6820,294.5121,0,U,63395,999,6831,.48296E-3,.596E-4,0
LEMUR-2-KRISH,2025-135AK,2026-06-13T20:44:28.842144,14.96178347,.0001672,97.7739,279.7631,103.9511,256.1896,0,U,64561,999,5342,.51988E-3,.5802E-4,0
LEMUR-2-HUBBLE-4,2025-135AP,2026-06-14T04:30:30.531168,14.93189305,.0001125,97.7696,279.1303,327.9445,32.1706,0,U,64565,999,5342,.15369E-3,.1549E-4,0
LEMUR-2-SEJONG-2,2025-135BL,2026-06-14T05:30:34.566336,14.96677547,.0004089,97.7689,280.2708,352.5073,7.6087,0,U,64586,999,5350,.32639E-3,.3667E-4,0
LEMUR-2-HUBBLE-5,2025-135BT,2026-06-14T05:03:31.048128,14.94128686,.0005331,97.7715,279.7820,4.8092,355.3179,0,U,64840,999,5346,.1524E-3,.1573E-4,0
LEMUR-2-KARENDARRELL,2025-135BU,2026-06-14T01:11:41.356608,15.00071058,.0009464,97.7677,281.2629,214.2952,145.7661,0,U,64841,999,5354,.67858E-3,.8407E-4,0
LEMUR-2-LUCILLE-ROSE,2025-135BV,2026-06-13T21:21:52.554240,15.00118871,.0010907,97.7771,281.1193,295.7571,64.2526,0,U,65403,999,4814,.59346E-3,.7354E-4,0
LEMUR-2-AFFIE-WAUWIE,2025-248C,2026-06-14T04:15:25.072992,15.27058848,.0007744,45.3886,131.2928,63.5131,296.6551,0,U,66295,999,3413,.57239E-3,.15219E-3,0
LEMUR-2-DEANANDMAEVE,2025-276N,2026-06-14T03:42:01.260864,15.19700477,.0006007,97.4219,238.6797,24.7792,335.3731,0,U,66678,999,2995,.34847E-3,.7378E-4,0
LEMUR-2-STAS-GORBUK,2025-276W,2026-06-14T04:01:54.127776,15.19352528,.0005392,97.4254,238.7486,25.4705,334.6795,0,U,66686,999,2995,.27525E-3,.5753E-4,0
LEMUR-2-TEODOR,2025-276DG,2026-06-14T03:43:18.714144,15.21021305,.0002058,97.4157,238.9683,118.6510,241.4933,0,U,66768,999,2998,.29674E-3,.6517E-4,0
LEMUR-2-LAILA,2025-276DQ,2026-06-14T04:41:06.184608,15.21242619,.0002057,97.4180,239.1268,140.2914,219.8473,0,U,66776,999,2999,.25503E-3,.5627E-4,0
LEMUR-2-CELIJO-SB-PK,2025-276DW,2026-06-14T04:01:57.993312,14.99948542,.0008974,97.5271,236.0436,140.0697,220.1189,0,U,66781,999,2217,.60409E-3,.7455E-4,0
